{
    "links": {
        "self": "http://www.neowsapp.com/rest/v1/neo/3656415?api_key=iIulBulltgU6a56xZRHN4H3l9WmuAYTsLGpBGhQ2"
    },
    "id": "3656415",
    "neo_reference_id": "3656415",
    "name": "(2014 BR)",
    "designation": "2014 BR",
    "nasa_jpl_url": "http://ssd.jpl.nasa.gov/sbdb.cgi?sstr=3656415",
    "absolute_magnitude_h": 25.7,
    "estimated_diameter": {
        "kilometers": {
            "estimated_diameter_min": 0.0192555078,
            "estimated_diameter_max": 0.0430566244
        },
        "meters": {
            "estimated_diameter_min": 19.2555078188,
            "estimated_diameter_max": 43.0566244241
        },
        "miles": {
            "estimated_diameter_min": 0.0119648141,
            "estimated_diameter_max": 0.0267541378
        },
        "feet": {
            "estimated_diameter_min": 63.1742402722,
            "estimated_diameter_max": 141.2618956756
        }
    },
    "is_potentially_hazardous_asteroid": false,
    "close_approach_data": [
        {
            "close_approach_date": "2014-01-19",
            "close_approach_date_full": "2014-Jan-19 12:38",
            "epoch_date_close_approach": 1390135080000,
            "relative_velocity": {
                "kilometers_per_second": "4.8631851942",
                "kilometers_per_hour": "17507.4666991759",
                "miles_per_hour": "10878.4589609407"
            },
            "miss_distance": {
                "astronomical": "0.0785724427",
                "lunar": "30.5646802103",
                "kilometers": "11754270.068617049",
                "miles": "7303764.7405673162"
            },
            "orbiting_body": "Earth"
        }
    ],
    "orbital_data": {
        "orbit_id": "5",
        "orbit_determination_date": "2017-04-06 08:42:51",
        "first_observation_date": "2014-01-20",
        "last_observation_date": "2014-01-28",
        "data_arc_in_days": 8,
        "observations_used": 17,
        "orbit_uncertainty": "9",
        "minimum_orbit_intersection": ".0785633",
        "jupiter_tisserand_invariant": "4.214",
        "epoch_osculation": "2456681.5",
        "eccentricity": ".3529503342399318",
        "semi_major_axis": "1.642015997762563",
        "inclination": "6.330798248021019",
        "ascending_node_longitude": "119.0740959377944",
        "orbital_period": "768.5365083165235",
        "perihelion_distance": "1.062465902524951",
        "perihelion_argument": "359.3695515923408",
        "aphelion_distance": "2.221566093000174",
        "perihelion_time": "2456676.280269962614",
        "mean_anomaly": "2.445040402277217",
        "mean_motion": ".4684227699066356",
        "equinox": "J2000",
        "orbit_class": {
            "orbit_class_type": "AMO",
            "orbit_class_description": "Near-Earth asteroid orbits similar to that of 1221 Amor",
            "orbit_class_range": "1.017 AU < q (perihelion) < 1.3 AU"
        }
    },
    "is_sentry_object": false
}